[{"OBJECT_NAME":"HAWK-7C","OBJECT_ID":"2023-054Y","EPOCH":"2026-03-09T16:32:02.440032","MEAN_MOTION":15.26207266,"ECCENTRICITY":0.00036507,"INCLINATION":97.2829,"RA_OF_ASC_NODE":317.5849,"ARG_OF_PERICENTER":52.209,"MEAN_ANOMALY":307.9479,"EPHEMERIS_TYPE":0,"CLASSIFICATION_TYPE":"U","NORAD_CAT_ID":56200,"ELEMENT_SET_NO":999,"REV_AT_EPOCH":16184,"BSTAR":0.0003098019,"MEAN_MOTION_DOT":7.947e-5,"MEAN_MOTION_DDOT":0},{"OBJECT_NAME":"YAOGAN-42 02","OBJECT_ID":"2024-075A","EPOCH":"2026-03-09T17:35:13.119936","MEAN_MOTION":15.23143853,"ECCENTRICITY":0.00051467,"INCLINATION":34.9989,"RA_OF_ASC_NODE":175.0593,"ARG_OF_PERICENTER":346.5324,"MEAN_ANOMALY":13.5253,"EPHEMERIS_TYPE":0,"CLASSIFICATION_TYPE":"U","NORAD_CAT_ID":59557,"ELEMENT_SET_NO":999,"REV_AT_EPOCH":10491,"BSTAR":0.00064504251,"MEAN_MOTION_DOT":0.00015606,"MEAN_MOTION_DDOT":0}]
